start=new Date('2022-11-13T00:00:00.000Z').valueOf();
sats=[{"RCS_SIZE":"LARGE","MEAN_ANOMALY":"290.8042","TLE_LINE2":"2 46562  53.0520 201.1385 0001534  69.3111 290.8042 15.06433264116988","GP_ID":"217585015","LAUNCH_DATE":"2020-10-06","ECCENTRICITY":"0.00015340","SITE":"AFETR","EPOCH":"2022-11-12T20:58:54.771456","DECAY_DATE":null,"RA_OF_ASC_NODE":"201.1385","CLASSIFICATION_TYPE":"U","ARG_OF_PERICENTER":"69.3111","EPHEMERIS_TYPE":"0","REV_AT_EPOCH":"11698","MEAN_MOTION":"15.06433264","TLE_LINE1":"1 46562U 20070AG  22316.87424504  .00012251  00000-0  83919-3 0  9994","NORAD_CAT_ID":"46562","PERIAPSIS":"546.049","APOAPSIS":"548.174","REF_FRAME":"TEME","MEAN_ELEMENT_THEORY":"SGP4","TIME_SYSTEM":"UTC","PERIOD":"95.590","SEMIMAJOR_AXIS":"6925.247","INCLINATION":"53.0520","BSTAR":"0.00083919000000","OBJECT_TYPE":"PAYLOAD","ELEMENT_SET_NO":"999","OBJECT_ID":"2020-070AG","OBJECT_NAME":"STARLINK-1714","FILE":"3652635","COUNTRY_CODE":"US","CENTER_NAME":"EARTH","MEAN_MOTION_DDOT":"0.0000000000000","MEAN_MOTION_DOT":"0.00012251"},{"OBJECT_ID":"2020-070AH","OBJECT_NAME":"STARLINK-1730","FILE":"3652635","CENTER_NAME":"EARTH","COUNTRY_CODE":"US","MEAN_MOTION_DDOT":"0.0000000000000","MEAN_MOTION_DOT":"0.00013232","OBJECT_TYPE":"PAYLOAD","ELEMENT_SET_NO":"999","BSTAR":"0.00090514000000","INCLINATION":"53.0518","SEMIMAJOR_AXIS":"6925.299","PERIOD":"95.591","TLE_LINE1":"1 46563U 20070AH  22316.85675166  .00013232  00000-0  90514-3 0  9994","PERIAPSIS":"545.949","NORAD_CAT_ID":"46563","APOAPSIS":"548.378","TIME_SYSTEM":"UTC","MEAN_ELEMENT_THEORY":"SGP4","REF_FRAME":"TEME","REV_AT_EPOCH":"11698","EPHEMERIS_TYPE":"0","MEAN_MOTION":"15.06416267","EPOCH":"2022-11-12T20:33:43.343424","DECAY_DATE":null,"RA_OF_ASC_NODE":"201.2482","ARG_OF_PERICENTER":"62.4959","CLASSIFICATION_TYPE":"U","GP_ID":"217585256","LAUNCH_DATE":"2020-10-06","SITE":"AFETR","ECCENTRICITY":"0.00017540","RCS_SIZE":"LARGE","MEAN_ANOMALY":"297.6208","TLE_LINE2":"2 46563  53.0518 201.2482 0001754  62.4959 297.6208 15.06416267116986"},{"INCLINATION":"53.0527","BSTAR":"0.00041241000000","OBJECT_TYPE":"PAYLOAD","ELEMENT_SET_NO":"999","COUNTRY_CODE":"US","CENTER_NAME":"EARTH","MEAN_MOTION_DDOT":"0.0000000000000","MEAN_MOTION_DOT":"0.00005869","OBJECT_NAME":"STARLINK-1733","OBJECT_ID":"2020-070AJ","FILE":"3652635","APOAPSIS":"548.339","REF_FRAME":"TEME","MEAN_ELEMENT_THEORY":"SGP4","TIME_SYSTEM":"UTC","TLE_LINE1":"1 46564U 20070AJ  22316.90467025  .00005869  00000-0  41241-3 0  9994","NORAD_CAT_ID":"46564","PERIAPSIS":"545.980","PERIOD":"95.591","SEMIMAJOR_AXIS":"6925.295","CLASSIFICATION_TYPE":"U","ARG_OF_PERICENTER":"54.6951","EPOCH":"2022-11-12T21:42:43.509600","DECAY_DATE":null,"RA_OF_ASC_NODE":"201.0097","MEAN_MOTION":"15.06417520","EPHEMERIS_TYPE":"0","REV_AT_EPOCH":"11699","MEAN_ANOMALY":"305.4197","TLE_LINE2":"2 46564  53.0527 201.0097 0001703  54.6951 305.4197 15.06417520116995","RCS_SIZE":"LARGE","ECCENTRICITY":"0.00017030","SITE":"AFETR","GP_ID":"217583515","LAUNCH_DATE":"2020-10-06"},{"TLE_LINE1":"1 46565U 20070AK  22316.88256473  .00006716  00000-0  46918-3 0  9993","PERIAPSIS":"546.251","NORAD_CAT_ID":"46565","APOAPSIS":"548.091","TIME_SYSTEM":"UTC","REF_FRAME":"TEME","MEAN_ELEMENT_THEORY":"SGP4","SEMIMAJOR_AXIS":"6925.306","PERIOD":"95.591","BSTAR":"0.00046918000000","OBJECT_TYPE":"PAYLOAD","ELEMENT_SET_NO":"999","INCLINATION":"53.0531","OBJECT_NAME":"STARLINK-1735","OBJECT_ID":"2020-070AK","FILE":"3652635","CENTER_NAME":"EARTH","COUNTRY_CODE":"US","MEAN_MOTION_DOT":"0.00006716","MEAN_MOTION_DDOT":"0.0000000000000","RCS_SIZE":"LARGE","MEAN_ANOMALY":"291.4744","TLE_LINE2":"2 46565  53.0531 201.1327 0001328  68.6386 291.4744 15.06413888116982","LAUNCH_DATE":"2020-10-06","GP_ID":"217583764","SITE":"AFETR","ECCENTRICITY":"0.00013280","DECAY_DATE":null,"EPOCH":"2022-11-12T21:10:53.592672","RA_OF_ASC_NODE":"201.1327","ARG_OF_PERICENTER":"68.6386","CLASSIFICATION_TYPE":"U","REV_AT_EPOCH":"11698","EPHEMERIS_TYPE":"0","MEAN_MOTION":"15.06413888"},{"SITE":"AFETR","ECCENTRICITY":"0.00017430","LAUNCH_DATE":"2020-10-06","GP_ID":"217584515","MEAN_ANOMALY":"295.8613","TLE_LINE2":"2 46566  53.0538 201.1957 0001743  64.2556 295.8613 15.06433079116988","RCS_SIZE":"LARGE","MEAN_MOTION":"15.06433079","REV_AT_EPOCH":"11698","EPHEMERIS_TYPE":"0","ARG_OF_PERICENTER":"64.2556","CLASSIFICATION_TYPE":"U","EPOCH":"2022-11-12T20:49:39.880416","DECAY_DATE":null,"RA_OF_ASC_NODE":"201.1957","SEMIMAJOR_AXIS":"6925.247","PERIOD":"95.590","APOAPSIS":"548.319","TIME_SYSTEM":"UTC","MEAN_ELEMENT_THEORY":"SGP4","REF_FRAME":"TEME","TLE_LINE1":"1 46566U 20070AL  22316.86782269  .00014084  00000-0  96165-3 0  9995","PERIAPSIS":"545.905","NORAD_CAT_ID":"46566","CENTER_NAME":"EARTH","COUNTRY_CODE":"US","MEAN_MOTION_DOT":"0.00014084","MEAN_MOTION_DDOT":"0.0000000000000","OBJECT_ID":"2020-070AL","OBJECT_NAME":"STARLINK-1740","FILE":"3652635","OBJECT_TYPE":"PAYLOAD","BSTAR":"0.00096165000000","ELEMENT_SET_NO":"999","INCLINATION":"53.0538"},{"DECAY_DATE":null,"EPOCH":"2022-11-12T21:32:06.590400","RA_OF_ASC_NODE":"201.0532","CLASSIFICATION_TYPE":"U","ARG_OF_PERICENTER":"62.1303","EPHEMERIS_TYPE":"0","REV_AT_EPOCH":"11699","MEAN_MOTION":"15.06418132","RCS_SIZE":"LARGE","MEAN_ANOMALY":"297.9831","TLE_LINE2":"2 46567  53.0540 201.0532 0001436  62.1303 297.9831 15.06418132116995","LAUNCH_DATE":"2020-10-06","GP_ID":"217584756","ECCENTRICITY":"0.00014360","SITE":"AFETR","INCLINATION":"53.0540","ELEMENT_SET_NO":"999","OBJECT_TYPE":"PAYLOAD","BSTAR":"0.00058943000000","OBJECT_NAME":"STARLINK-1741","OBJECT_ID":"2020-070AM","FILE":"3652635","COUNTRY_CODE":"US","CENTER_NAME":"EARTH","MEAN_MOTION_DOT":"0.00008513","MEAN_MOTION_DDOT":"0.0000000000000","TLE_LINE1":"1 46567U 20070AM  22316.89729850  .00008513  00000-0  58943-3 0  9998","NORAD_CAT_ID":"46567","PERIAPSIS":"546.164","APOAPSIS":"548.152","MEAN_ELEMENT_THEORY":"SGP4","REF_FRAME":"TEME","TIME_SYSTEM":"UTC","PERIOD":"95.591","SEMIMAJOR_AXIS":"6925.293"},{"OBJECT_TYPE":"PAYLOAD","ELEMENT_SET_NO":"999","BSTAR":"0.00091639000000","INCLINATION":"53.0536","CENTER_NAME":"EARTH","COUNTRY_CODE":"US","MEAN_MOTION_DOT":"0.00013408","MEAN_MOTION_DDOT":"0.0000000000000","OBJECT_NAME":"STARLINK-1747","OBJECT_ID":"2020-070AP","FILE":"3652635","APOAPSIS":"548.510","TIME_SYSTEM":"UTC","MEAN_ELEMENT_THEORY":"SGP4","REF_FRAME":"TEME","TLE_LINE1":"1 46569U 20070AP  22316.91205066  .00013408  00000-0  91639-3 0  9999","PERIAPSIS":"545.683","NORAD_CAT_ID":"46569","SEMIMAJOR_AXIS":"6925.231","PERIOD":"95.590","ARG_OF_PERICENTER":"61.4718","CLASSIFICATION_TYPE":"U","DECAY_DATE":null,"EPOCH":"2022-11-12T21:53:21.177024","RA_OF_ASC_NODE":"200.9946","MEAN_MOTION":"15.06438302","REV_AT_EPOCH":"11699","EPHEMERIS_TYPE":"0","MEAN_ANOMALY":"298.6476","TLE_LINE2":"2 46569  53.0536 200.9946 0002041  61.4718 298.6476 15.06438302116998","RCS_SIZE":"LARGE","SITE":"AFETR","ECCENTRICITY":"0.00020410","LAUNCH_DATE":"2020-10-06","GP_ID":"217584015"},{"MEAN_ANOMALY":"211.2766","TLE_LINE2":"2 46570  53.0550 197.7873 0005306 148.8541 211.2766 15.13032634117034","RCS_SIZE":"LARGE","ECCENTRICITY":"0.00053060","SITE":"AFETR","GP_ID":"217584264","LAUNCH_DATE":"2020-10-06","CLASSIFICATION_TYPE":"U","ARG_OF_PERICENTER":"148.8541","DECAY_DATE":null,"EPOCH":"2022-11-12T21:46:27.223392","RA_OF_ASC_NODE":"197.7873","MEAN_MOTION":"15.13032634","EPHEMERIS_TYPE":"0","REV_AT_EPOCH":"11703","APOAPSIS":"530.624","MEAN_ELEMENT_THEORY":"SGP4","REF_FRAME":"TEME","TIME_SYSTEM":"UTC","TLE_LINE1":"1 46570U 20070AQ  22316.90725953  .00020129  00000-0  11394-2 0  9999","NORAD_CAT_ID":"46570","PERIAPSIS":"523.296","PERIOD":"95.173","SEMIMAJOR_AXIS":"6905.095","INCLINATION":"53.0550","ELEMENT_SET_NO":"999","OBJECT_TYPE":"PAYLOAD","BSTAR":"0.00113940000000","COUNTRY_CODE":"US","CENTER_NAME":"EARTH","MEAN_MOTION_DOT":"0.00020129","MEAN_MOTION_DDOT":"0.0000000000000","OBJECT_NAME":"STARLINK-1748","OBJECT_ID":"2020-070AQ","FILE":"3652635"},{"SITE":"AFETR","ECCENTRICITY":"0.00019780","LAUNCH_DATE":"2020-10-06","GP_ID":"217585016","TLE_LINE2":"2 46572  53.0528 221.0979 0001978  55.5884 304.5291 15.06436668116703","MEAN_ANOMALY":"304.5291","RCS_SIZE":"LARGE","MEAN_MOTION":"15.06436668","REV_AT_EPOCH":"11670","EPHEMERIS_TYPE":"0","ARG_OF_PERICENTER":"55.5884","CLASSIFICATION_TYPE":"U","RA_OF_ASC_NODE":"221.0979","EPOCH":"2022-11-12T21:12:11.619648","DECAY_DATE":null,"SEMIMAJOR_AXIS":"6925.236","PERIOD":"95.590","TIME_SYSTEM":"UTC","REF_FRAME":"TEME","MEAN_ELEMENT_THEORY":"SGP4","APOAPSIS":"548.471","PERIAPSIS":"545.731","NORAD_CAT_ID":"46572","TLE_LINE1":"1 46572U 20070AS  22316.88346782  .00017783  00000-0  12085-2 0  9997","MEAN_MOTION_DOT":"0.00017783","MEAN_MOTION_DDOT":"0.0000000000000","CENTER_NAME":"EARTH","COUNTRY_CODE":"US","FILE":"3652635","OBJECT_NAME":"STARLINK-1531","OBJECT_ID":"2020-070AS","BSTAR":"0.00120850000000","OBJECT_TYPE":"PAYLOAD","ELEMENT_SET_NO":"999","INCLINATION":"53.0528"},{"ECCENTRICITY":"0.00015410","SITE":"AFETR","LAUNCH_DATE":"2020-10-06","GP_ID":"217585257","MEAN_ANOMALY":"306.9604","TLE_LINE2":"2 46573  53.0538 206.2141 0001541  53.1526 306.9604 15.06423050116912","RCS_SIZE":"LARGE","MEAN_MOTION":"15.06423050","EPHEMERIS_TYPE":"0","REV_AT_EPOCH":"11691","CLASSIFICATION_TYPE":"U","ARG_OF_PERICENTER":"53.1526","DECAY_DATE":null,"EPOCH":"2022-11-12T20:39:39.979296","RA_OF_ASC_NODE":"206.2141","PERIOD":"95.591","SEMIMAJOR_AXIS":"6925.278","APOAPSIS":"548.210","MEAN_ELEMENT_THEORY":"SGP4","REF_FRAME":"TEME","TIME_SYSTEM":"UTC","TLE_LINE1":"1 46573U 20070AT  22316.86087939  .00015322  00000-0  10446-2 0  9998","NORAD_CAT_ID":"46573","PERIAPSIS":"546.076","COUNTRY_CODE":"US","CENTER_NAME":"EARTH","MEAN_MOTION_DDOT":"0.0000000000000","MEAN_MOTION_DOT":"0.00015322","OBJECT_NAME":"STARLINK-1650","OBJECT_ID":"2020-070AT","FILE":"3652635","INCLINATION":"53.0538","BSTAR":"0.00104460000000","OBJECT_TYPE":"PAYLOAD","ELEMENT_SET_NO":"999"}];
